EOSSAT-1                
1 55053U 23001AW  26068.73619225  .00007695  00000+0  24844-3 0  9992
2 55053  97.3357 130.2294 0011263 110.3168 249.9285 15.32339828176689
STARLINK-30856          
1 58725U 24002W   26068.73855204  .00002836  00000+0  10781-3 0  9999
2 58725  53.1591 229.6448 0001028  91.3394 268.7724 15.30210221122028
